[
    {
        "Altitude(m)": 717195.4750112459,
        "Argument of Periapsis(deg)": 0.005695060593313534,
        "Eccentricity": 0.0,
        "Inclination(deg)": 45.0,
        "Latitude(deg)": -43.49332952550324,
        "Longitude(deg)": -116.04570377512557,
        "Mean Anomaly(deg)": 283.9484083237404,
        "RAAN(deg)": 54.994624029270895,
        "Satellite Name": "Constellation 1 259",
        "Satellite Number": 259,
        "Semi-Major Axis(m)": 7083131.272910544,
        "Time(s)": 95
    },
    {
        "Altitude(m)": 717189.5861861286,
        "Argument of Periapsis(deg)": 0.00575500859955894,
        "Eccentricity": 0.0,
        "Inclination(deg)": 45.0,
        "Latitude(deg)": -43.479104192179776,
        "Longitude(deg)": -115.96888283454358,
        "Mean Anomaly(deg)": 284.00910946399034,
        "RAAN(deg)": 54.99456744010533,
        "Satellite Name": "Constellation 1 259",
        "Satellite Number": 259,
        "Semi-Major Axis(m)": 7083131.272910544,
        "Time(s)": 96
    },
    {
        "Altitude(m)": 717183.673504029,
        "Argument of Periapsis(deg)": 0.005814956605804345,
        "Eccentricity": 0.0,
        "Inclination(deg)": 45.0,
        "Latitude(deg)": -43.464821582796716,
        "Longitude(deg)": -115.89209967789995,
        "Mean Anomaly(deg)": 284.0698106042402,
        "RAAN(deg)": 54.994510850939754,
        "Satellite Name": "Constellation 1 259",
        "Satellite Number": 259,
        "Semi-Major Axis(m)": 7083131.272910544,
        "Time(s)": 97
    },
    {
        "Altitude(m)": 717177.7369867001,
        "Argument of Periapsis(deg)": 0.00587490461204975,
        "Eccentricity": 0.0,
        "Inclination(deg)": 45.0,
        "Latitude(deg)": -43.450481752145606,
        "Longitude(deg)": -115.81535458869611,
        "Mean Anomaly(deg)": 284.1305117444901,
        "RAAN(deg)": 54.994454261774194,
        "Satellite Name": "Constellation 1 259",
        "Satellite Number": 259,
        "Semi-Major Axis(m)": 7083131.272910544,
        "Time(s)": 98
    },
    {
        "Altitude(m)": 717171.7766559595,
        "Argument of Periapsis(deg)": 0.005934852618295156,
        "Eccentricity": 0.0,
        "Inclination(deg)": 45.0,
        "Latitude(deg)": -43.43608475517169,
        "Longitude(deg)": -115.73864768178944,
        "Mean Anomaly(deg)": 284.19121288473997,
        "RAAN(deg)": 54.99439767260862,
        "Satellite Name": "Constellation 1 259",
        "Satellite Number": 259,
        "Semi-Major Axis(m)": 7083131.272910544,
        "Time(s)": 99
    },
    {
        "Altitude(m)": 717165.7925337385,
        "Argument of Periapsis(deg)": 0.005994800624540561,
        "Eccentricity": 0.0,
        "Inclination(deg)": 45.0,
        "Latitude(deg)": -43.42163064697293,
        "Longitude(deg)": -115.66197907149107,
        "Mean Anomaly(deg)": 284.25191402498996,
        "RAAN(deg)": 54.994341083443054,
        "Satellite Name": "Constellation 1 259",
        "Satellite Number": 259,
        "Semi-Major Axis(m)": 7083131.272910544,
        "Time(s)": 100
    },
    {
        "Altitude(m)": 717159.7846420311,
        "Argument of Periapsis(deg)": 0.006054748630785968,
        "Eccentricity": 0.0,
        "Inclination(deg)": 45.0,
        "Latitude(deg)": -43.40711948279908,
        "Longitude(deg)": -115.58534887156492,
        "Mean Anomaly(deg)": 284.3126151652398,
        "RAAN(deg)": 54.99428449427748,
        "Satellite Name": "Constellation 1 259",
        "Satellite Number": 259,
        "Semi-Major Axis(m)": 7083131.272910544,
        "Time(s)": 101
    },
    {
        "Altitude(m)": 717153.7530029337,
        "Argument of Periapsis(deg)": 0.006114696637031373,
        "Eccentricity": 0.0,
        "Inclination(deg)": 45.0,
        "Latitude(deg)": -43.39255131805071,
        "Longitude(deg)": -115.50875719522662,
        "Mean Anomaly(deg)": 284.37331630548965,
        "RAAN(deg)": 54.99422790511192,
        "Satellite Name": "Constellation 1 259",
        "Satellite Number": 259,
        "Semi-Major Axis(m)": 7083131.272910544,
        "Time(s)": 102
    },
    {
        "Altitude(m)": 717147.6976386295,
        "Argument of Periapsis(deg)": 0.006174644643276778,
        "Eccentricity": 0.0,
        "Inclination(deg)": 45.0,
        "Latitude(deg)": -43.377926208278446,
        "Longitude(deg)": -115.43220415514399,
        "Mean Anomaly(deg)": 284.4340174457396,
        "RAAN(deg)": 54.994171315946346,
        "Satellite Name": "Constellation 1 259",
        "Satellite Number": 259,
        "Semi-Major Axis(m)": 7083131.272910544,
        "Time(s)": 103
    },
    {
        "Altitude(m)": 717141.6185713779,
        "Argument of Periapsis(deg)": 0.006234592649522184,
        "Eccentricity": 0.0,
        "Inclination(deg)": 45.0,
        "Latitude(deg)": -43.3632442091817,
        "Longitude(deg)": -115.35569003153242,
        "Mean Anomaly(deg)": 284.4947185859895,
        "RAAN(deg)": 54.99411472678077,
        "Satellite Name": "Constellation 1 259",
        "Satellite Number": 259,
        "Semi-Major Axis(m)": 7083131.272910544,
        "Time(s)": 104
    },
    {
        "Altitude(m)": 717135.5158235293,
        "Argument of Periapsis(deg)": 0.00629454065576759,
        "Eccentricity": 0.0,
        "Inclination(deg)": 45.0,
        "Latitude(deg)": -43.348505376608706,
        "Longitude(deg)": -115.2792145997666,
        "Mean Anomaly(deg)": 284.55541972623945,
        "RAAN(deg)": 54.9940581376152,
        "Satellite Name": "Constellation 1 259",
        "Satellite Number": 259,
        "Semi-Major Axis(m)": 7083131.272910544,
        "Time(s)": 105
    },
    {
        "Altitude(m)": 717129.3894175257,
        "Argument of Periapsis(deg)": 0.006354488662012995,
        "Eccentricity": 0.0,
        "Inclination(deg)": 45.0,
        "Latitude(deg)": -43.33370976655445,
        "Longitude(deg)": -115.20277813896314,
        "Mean Anomaly(deg)": 284.61612086648927,
        "RAAN(deg)": 54.99400154844963,
        "Satellite Name": "Constellation 1 259",
        "Satellite Number": 259,
        "Semi-Major Axis(m)": 7083131.272910544,
        "Time(s)": 106
    },
    {
        "Altitude(m)": 717123.2393758884,
        "Argument of Periapsis(deg)": 0.006414436668258401,
        "Eccentricity": 0.0,
        "Inclination(deg)": 45.0,
        "Latitude(deg)": -43.31885743516039,
        "Longitude(deg)": -115.12638075959022,
        "Mean Anomaly(deg)": 284.6768220067392,
        "RAAN(deg)": 54.99394495928406,
        "Satellite Name": "Constellation 1 259",
        "Satellite Number": 259,
        "Semi-Major Axis(m)": 7083131.272910544,
        "Time(s)": 107
    },
    {
        "Altitude(m)": 717117.0657212295,
        "Argument of Periapsis(deg)": 0.0064743846745038075,
        "Eccentricity": 0.0,
        "Inclination(deg)": 45.0,
        "Latitude(deg)": -43.30394843871351,
        "Longitude(deg)": -115.0500225715654,
        "Mean Anomaly(deg)": 284.73752314698913,
        "RAAN(deg)": 54.9938883701185,
        "Satellite Name": "Constellation 1 259",
        "Satellite Number": 259,
        "Semi-Major Axis(m)": 7083131.272910544,
        "Time(s)": 108
    },
    {
        "Altitude(m)": 717110.8684762461,
        "Argument of Periapsis(deg)": 0.0065343326807492125,
        "Eccentricity": 0.0,
        "Inclination(deg)": 45.0,
        "Latitude(deg)": -43.28898283364538,
        "Longitude(deg)": -114.97370368425499,
        "Mean Anomaly(deg)": 284.798224287239,
        "RAAN(deg)": 54.993831780952924,
        "Satellite Name": "Constellation 1 259",
        "Satellite Number": 259,
        "Semi-Major Axis(m)": 7083131.272910544,
        "Time(s)": 109
    },
    {
        "Altitude(m)": 717104.6476637176,
        "Argument of Periapsis(deg)": 0.0065942806869946176,
        "Eccentricity": 0.0,
        "Inclination(deg)": 45.0,
        "Latitude(deg)": -43.273960676531225,
        "Longitude(deg)": -114.89742420647325,
        "Mean Anomaly(deg)": 284.8589254274889,
        "RAAN(deg)": 54.99377519178736,
        "Satellite Name": "Constellation 1 259",
        "Satellite Number": 259,
        "Semi-Major Axis(m)": 7083131.272910544,
        "Time(s)": 110
    },
    {
        "Altitude(m)": 717098.4033065155,
        "Argument of Periapsis(deg)": 0.006654228693240024,
        "Eccentricity": 0.0,
        "Inclination(deg)": 45.0,
        "Latitude(deg)": -43.25888202408892,
        "Longitude(deg)": -114.82118441457926,
        "Mean Anomaly(deg)": 284.91962656773876,
        "RAAN(deg)": 54.99371860262178,
        "Satellite Name": "Constellation 1 259",
        "Satellite Number": 259,
        "Semi-Major Axis(m)": 7083131.272910544,
        "Time(s)": 111
    },
    {
        "Altitude(m)": 717092.135427594,
        "Argument of Periapsis(deg)": 0.006714176699485429,
        "Eccentricity": 0.0,
        "Inclination(deg)": 45.0,
        "Latitude(deg)": -43.243746933178635,
        "Longitude(deg)": -114.74498408008772,
        "Mean Anomaly(deg)": 284.98032770798875,
        "RAAN(deg)": 54.99366201345622,
        "Satellite Name": "Constellation 1 259",
        "Satellite Number": 259,
        "Semi-Major Axis(m)": 7083131.272910544,
        "Time(s)": 112
    },
    {
        "Altitude(m)": 717085.8440499884,
        "Argument of Periapsis(deg)": 0.006774124705730835,
        "Eccentricity": 0.0,
        "Inclination(deg)": 45.0,
        "Latitude(deg)": -43.228555460801175,
        "Longitude(deg)": -114.66882347825215,
        "Mean Anomaly(deg)": 285.04102884823857,
        "RAAN(deg)": 54.99360542429065,
        "Satellite Name": "Constellation 1 259",
        "Satellite Number": 259,
        "Semi-Major Axis(m)": 7083131.272910544,
        "Time(s)": 113
    }
]